0 COSMOS 2251 DEB
1 37498U 93036BMB 13284.31976796  .00001255  00000-0  44124-3 0  1564
2 37498 074.0447 142.9796 0020879 224.3723 135.6010 14.35821375216459
0 COSMOS 2251 DEB
1 37498U 93036BMB 13287.24609057  .00001267  00000-0  44532-3 0  1579
2 37498 074.0442 137.6105 0020766 218.4729 141.4965 14.35829219216879
0 COSMOS 2251 DEB
1 37498U 93036BMB 13290.24207671  .00001278  00000-0  44912-3 0  1584
2 37498 074.0428 132.1163 0020743 213.3076 146.6902 14.35837358217301
0 COSMOS 2251 DEB
1 37498U 93036BMB 13294.21347174  .00001354  00000-0  47565-3 0  1591
2 37498 074.0362 124.8308 0018505 208.0764 151.9746 14.35850085217874
0 COSMOS 2251 DEB
1 37498U 93036BMB 13295.18888966  .00001419  00000-0  49783-3 0  1605
2 37498 074.0381 123.0438 0017192 203.2823 156.7819 14.35854920218017
